{
  "norad_id": 54808,
  "name": "STARLINK-5413",
  "history": [
    {
      "epoch": "2026-03-28T22:22:17.699520",
      "apogee_km": 540.7982028078104,
      "perigee_km": 538.6896327040786,
      "latitude_deg": -30.736341102227236,
      "longitude_deg": 110.28633280028589,
      "semi_major_axis_km": 6917.880917755944,
      "eccentricity": 0.0001524,
      "inclination_deg": 53.2167,
      "raan_deg": 287.9104,
      "arg_perigee_deg": 93.7662,
      "mean_anomaly_deg": 266.3504,
      "mean_motion_rev_day": 15.08839827
    }
  ]
}