{"fetched_at":"2026-03-30T06:02:59Z","count":15439,"tles":[{"name":"STARLINK-5413","line1":"1 54808U 22175BC  26087.93214930  .00000264  00000+0  34691-4 0  9994","line2":"2 54808  53.2167 287.9104 0001524  93.7662 266.3504 15.08839827183242","category":"Starlink"}]}